{"type": "FeatureCollection", "features": [ {"type": "Feature", "properties": {"norad_id": 43207, "name": "BEIDOU-3 M4 (C22)", "group": "beidou", "lat": -50.96361934034118, "lon": 14.771569718538295, "alt_km": 21532.51810132239, "timestamp": "2025-12-07T22:37:43.344893+00:00", "meta": {"OBJECT_NAME": "BEIDOU-3 M4 (C22)", "OBJECT_ID": "2018-018A", "EPOCH": "2025-12-02T03:19:43.852800", "MEAN_MOTION": 1.86230706, "ECCENTRICITY": 0.00040749, "INCLINATION": 56.4768, "RA_OF_ASC_NODE": 69.6557, "ARG_OF_PERICENTER": 15.1369, "MEAN_ANOMALY": 344.8773, "EPHEMERIS_TYPE": 0, "CLASSIFICATION_TYPE": "U", "NORAD_CAT_ID": 43207, "ELEMENT_SET_NO": 999, "REV_AT_EPOCH": 5307, "BSTAR": 0, "MEAN_MOTION_DOT": -4.5e-07, "MEAN_MOTION_DDOT": 0}, "tle": {"line1": "1 43207U 18018A   25336.13870200 -.00000045  00000+0  00000+0 0  9992", "line2": "2 43207  56.4768  69.6557 0004074  15.1369 344.8773  1.86230706 53076"}}, "geometry": {"type": "Point", "coordinates": [14.771569718538295, -50.96361934034118]}}, {"type": "Feature", "properties": {"norad_id": 43208, "name": "BEIDOU-3 M3 (C21)", "group": "beidou", "lat": -49.97833663180359, "lon": -58.516756252972066, "alt_km": 21527.948747076152, "timestamp": "2025-12-07T22:37:43.344913+00:00", "meta": {"OBJECT_NAME": "BEIDOU-3 M3 (C21)", "OBJECT_ID": "2018-018B", "EPOCH": "2025-12-03T06:41:57.693408", "MEAN_MOTION": 1.86230862, "ECCENTRICITY": 0.0006282, "INCLINATION": 56.4772, "RA_OF_ASC_NODE": 69.6218, "ARG_OF_PERICENTER": 317.5873, "MEAN_ANOMALY": 42.3668, "EPHEMERIS_TYPE": 0, "CLASSIFICATION_TYPE": "U", "NORAD_CAT_ID": 43208, "ELEMENT_SET_NO": 999, "REV_AT_EPOCH": 5309, "BSTAR": 0, "MEAN_MOTION_DOT": -4.9e-07, "MEAN_MOTION_DDOT": 0}, "tle": {"line1": "1 43208U 18018B   25337.27913997 -.00000049  00000+0  00000+0 0  9994", "line2": "2 43208  56.4772  69.6218 0006282 317.5873  42.3668  1.86230862 53096"}}, "geometry": {"type": "Point", "coordinates": [-58.516756252972066, -49.97833663180359]}}, {"type": "Feature", "properties": {"norad_id": 43245, "name": "BEIDOU-3 M9 (C29)", "group": "beidou", "lat": 52.69457394654828, "lon": 56.46586027143623, "alt_km": 21526.72858764669, "timestamp": "2025-12-07T22:37:43.344939+00:00", "meta": {"OBJECT_NAME": "BEIDOU-3 M9 (C29)", "OBJECT_ID": "2018-029A", "EPOCH": "2025-12-07T06:05:41.929728", "MEAN_MOTION": 1.8622789, "ECCENTRICITY": 0.00016353, "INCLINATION": 54.3707, "RA_OF_ASC_NODE": 306.6587, "ARG_OF_PERICENTER": 276.8895, "MEAN_ANOMALY": 83.077, "EPHEMERIS_TYPE": 0, "CLASSIFICATION_TYPE": "U", "NORAD_CAT_ID": 43245, "ELEMENT_SET_NO": 999, "REV_AT_EPOCH": 5232, "BSTAR": 0, "MEAN_MOTION_DOT": -7e-07, "MEAN_MOTION_DDOT": 0}, "tle": {"line1": "1 43245U 18029A   25341.25395752 -.00000070  00000+0  00000+0 0  9997", "line2": "2 43245  54.3707 306.6587 0001635 276.8895  83.0770  1.86227890 52321"}}, "geometry": {"type": "Point", "coordinates": [56.46586027143623, 52.69457394654828]}}, {"type": "Feature", "properties": {"norad_id": 43246, "name": "BEIDOU-3 M10 (C30)", "group": "beidou", "lat": 27.535501139806993, "lon": 104.69866442742186, "alt_km": 21534.150127047233, "timestamp": "2025-12-07T22:37:43.344955+00:00", "meta": {"OBJECT_NAME": "BEIDOU-3 M10 (C30)", "OBJECT_ID": "2018-029B", "EPOCH": "2025-12-06T15:39:16.557408", "MEAN_MOTION": 1.86228888, "ECCENTRICITY": 0.00040513, "INCLINATION": 54.3688, "RA_OF_ASC_NODE": 306.7073, "ARG_OF_PERICENTER": 0.3852, "MEAN_ANOMALY": 359.5988, "EPHEMERIS_TYPE": 0, "CLASSIFICATION_TYPE": "U", "NORAD_CAT_ID": 43246, "ELEMENT_SET_NO": 999, "REV_AT_EPOCH": 5229, "BSTAR": 0, "MEAN_MOTION_DOT": -6.9e-07, "MEAN_MOTION_DDOT": 0}, "tle": {"line1": "1 43246U 18029B   25340.65227497 -.00000069  00000+0  00000+0 0  9999", "line2": "2 43246  54.3688 306.7073 0004051   0.3852 359.5988  1.86228888 52295"}}, "geometry": {"type": "Point", "coordinates": [104.69866442742186, 27.535501139806993]}}, {"type": "Feature", "properties": {"norad_id": 43539, "name": "BEIDOU-2 IGSO-7 (C16)", "group": "beidou", "lat": 3.0206492551078035, "lon": 166.81441674669875, "alt_km": 36030.45284016716, "timestamp": "2025-12-07T22:37:43.344968+00:00", "meta": {"OBJECT_NAME": "BEIDOU-2 IGSO-7 (C16)", "OBJECT_ID": "2018-057A", "EPOCH": "2025-12-06T22:34:51.744288", "MEAN_MOTION": 1.00258613, "ECCENTRICITY": 0.00924955, "INCLINATION": 55.1738, "RA_OF_ASC_NODE": 164.7221, "ARG_OF_PERICENTER": 235.206, "MEAN_ANOMALY": 125.9942, "EPHEMERIS_TYPE": 0, "CLASSIFICATION_TYPE": "U", "NORAD_CAT_ID": 43539, "ELEMENT_SET_NO": 999, "REV_AT_EPOCH": 2720, "BSTAR": 0, "MEAN_MOTION_DOT": -6.3e-07, "MEAN_MOTION_DDOT": 0}, "tle": {"line1": "1 43539U 18057A   25340.94087667 -.00000063  00000+0  00000+0 0  9994", "line2": "2 43539  55.1738 164.7221 0092495 235.2060 125.9942  1.00258613 27204"}}, "geometry": {"type": "Point", "coordinates": [166.81441674669875, 3.0206492551078035]}}, {"type": "Feature", "properties": {"norad_id": 43581, "name": "BEIDOU-3 M5 (C23)", "group": "beidou", "lat": -4.3682288730795085, "lon": -174.35992767524655, "alt_km": 21523.19591184584, "timestamp": "2025-12-07T22:37:43.344980+00:00", "meta": {"OBJECT_NAME": "BEIDOU-3 M5 (C23)", "OBJECT_ID": "2018-062A", "EPOCH": "2025-12-06T21:02:53.653632", "MEAN_MOTION": 1.86228635, "ECCENTRICITY": 0.00021198, "INCLINATION": 54.0891, "RA_OF_ASC_NODE": 188.8428, "ARG_OF_PERICENTER": 353.2853, "MEAN_ANOMALY": 6.7866, "EPHEMERIS_TYPE": 0, "CLASSIFICATION_TYPE": "U", "NORAD_CAT_ID": 43581, "ELEMENT_SET_NO": 999, "REV_AT_EPOCH": 5005, "BSTAR": 0, "MEAN_MOTION_DOT": 6.6e-07, "MEAN_MOTION_DDOT": 0}, "tle": {"line1": "1 43581U 18062A   25340.87700988  .00000066  00000+0  00000+0 0  9999", "line2": "2 43581  54.0891 188.8428 0002119 353.2853   6.7866  1.86228635 50055"}}, "geometry": {"type": "Point", "coordinates": [-174.35992767524655, -4.3682288730795085]}}, {"type": "Feature", "properties": {"norad_id": 43582, "name": "BEIDOU-3 M6 (C24)", "group": "beidou", "lat": 53.91836302096193, "lon": -87.0874104670486, "alt_km": 21505.32897424187, "timestamp": "2025-12-07T22:37:43.344991+00:00", "meta": {"OBJECT_NAME": "BEIDOU-3 M6 (C24)", "OBJECT_ID": "2018-062B", "EPOCH": "2025-12-06T17:45:46.056960", "MEAN_MOTION": 1.86229666, "ECCENTRICITY": 0.00077578, "INCLINATION": 54.0886, "RA_OF_ASC_NODE": 188.8365, "ARG_OF_PERICENTER": 46.2295, "MEAN_ANOMALY": 313.9106, "EPHEMERIS_TYPE": 0, "CLASSIFICATION_TYPE": "U", "NORAD_CAT_ID": 43582, "ELEMENT_SET_NO": 999, "REV_AT_EPOCH": 5005, "BSTAR": 0, "MEAN_MOTION_DOT": 6.8e-07, "MEAN_MOTION_DDOT": 0}, "tle": {"line1": "1 43582U 18062B   25340.74011640  .00000068  00000+0  00000+0 0  9998", "line2": "2 43582  54.0886 188.8365 0007757  46.2295 313.9106  1.86229666 50057"}}, "geometry": {"type": "Point", "coordinates": [-87.0874104670486, 53.91836302096193]}}, {"type": "Feature", "properties": {"norad_id": 43602, "name": "BEIDOU-3 M12 (C26)", "group": "beidou", "lat": 39.49171860964044, "lon": -29.001562252197708, "alt_km": 21522.456715397668, "timestamp": "2025-12-07T22:37:43.345002+00:00", "meta": {"OBJECT_NAME": "BEIDOU-3 M12 (C26)", "OBJECT_ID": "2018-067A", "EPOCH": "2025-12-05T01:36:30.437280", "MEAN_MOTION": 1.86227634, "ECCENTRICITY": 0.0009145, "INCLINATION": 54.1831, "RA_OF_ASC_NODE": 187.6237, "ARG_OF_PERICENTER": 40.6372, "MEAN_ANOMALY": 319.5174, "EPHEMERIS_TYPE": 0, "CLASSIFICATION_TYPE": "U", "NORAD_CAT_ID": 43602, "ELEMENT_SET_NO": 999, "REV_AT_EPOCH": 4950, "BSTAR": 0, "MEAN_MOTION_DOT": 9.5e-07, "MEAN_MOTION_DDOT": 0}, "tle": {"line1": "1 43602U 18067A   25339.06701895  .00000095  00000+0  00000+0 0  9997", "line2": "2 43602  54.1831 187.6237 0009145  40.6372 319.5174  1.86227634 49501"}}, "geometry": {"type": "Point", "coordinates": [-29.001562252197708, 39.49171860964044]}}, {"type": "Feature", "properties": {"norad_id": 43603, "name": "BEIDOU-3 M11 (C25)", "group": "beidou", "lat": 29.923692228729657, "lon": -147.9313670898277, "alt_km": 21509.17000492274, "timestamp": "2025-12-07T22:37:43.345014+00:00", "meta": {"OBJECT_NAME": "BEIDOU-3 M11 (C25)", "OBJECT_ID": "2018-067B", "EPOCH": "2025-12-06T19:29:48.716160", "MEAN_MOTION": 1.86227158, "ECCENTRICITY": 0.00055848, "INCLINATION": 54.1804, "RA_OF_ASC_NODE": 187.5285, "ARG_OF_PERICENTER": 36.507, "MEAN_ANOMALY": 323.6042, "EPHEMERIS_TYPE": 0, "CLASSIFICATION_TYPE": "U", "NORAD_CAT_ID": 43603, "ELEMENT_SET_NO": 999, "REV_AT_EPOCH": 4956, "BSTAR": 0, "MEAN_MOTION_DOT": 6.7e-07, "MEAN_MOTION_DDOT": 0}, "tle": {"line1": "1 43603U 18067B   25340.81236940  .00000067  00000+0  00000+0 0  9996", "line2": "2 43603  54.1804 187.5285 0005584  36.5070 323.6042  1.86227158 49563"}}, "geometry": {"type": "Point", "coordinates": [-147.9313670898277, 29.923692228729657]}}, {"type": "Feature", "properties": {"norad_id": 43622, "name": "BEIDOU-3 M13 (C32)", "group": "beidou", "lat": 50.16330736813163, "lon": 121.55526221363775, "alt_km": 21532.002943441606, "timestamp": "2025-12-07T22:37:43.345026+00:00", "meta": {"OBJECT_NAME": "BEIDOU-3 M13 (C32)", "OBJECT_ID": "2018-072A", "EPOCH": "2025-12-03T13:07:53.541408", "MEAN_MOTION": 1.86230692, "ECCENTRICITY": 0.00056735, "INCLINATION": 56.4512, "RA_OF_ASC_NODE": 69.1249, "ARG_OF_PERICENTER": 298.6305, "MEAN_ANOMALY": 61.3164, "EPHEMERIS_TYPE": 0, "CLASSIFICATION_TYPE": "U", "NORAD_CAT_ID": 43622, "ELEMENT_SET_NO": 999, "REV_AT_EPOCH": 4901, "BSTAR": 0, "MEAN_MOTION_DOT": -5e-07, "MEAN_MOTION_DDOT": 0}, "tle": {"line1": "1 43622U 18072A   25337.54714747 -.00000050  00000+0  00000+0 0  9998", "line2": "2 43622  56.4512  69.1249 0005673 298.6305  61.3164  1.86230692 49019"}}, "geometry": {"type": "Point", "coordinates": [121.55526221363775, 50.16330736813163]}}]}